{
    "CCSDS_OMM_VERS": "3.0",
    "COMMENT": "GENERATED VIA SPACE-TRACK.ORG API",
    "CREATION_DATE": "2025-11-23T23:06:32",
    "ORIGINATOR": "18 SPCS",
    "OBJECT_NAME": "QZS-4",
    "OBJECT_ID": "2017-062A",
    "CENTER_NAME": "EARTH",
    "REF_FRAME": "TEME",
    "TIME_SYSTEM": "UTC",
    "MEAN_ELEMENT_THEORY": "SGP4",
    "EPOCH": "2025-11-23T11:52:30.821952",
    "MEAN_MOTION": "1.00259074",
    "ECCENTRICITY": "0.07518910",
    "INCLINATION": "40.2375",
    "RA_OF_ASC_NODE": "346.1195",
    "ARG_OF_PERICENTER": "271.0446",
    "MEAN_ANOMALY": "121.4662",
    "EPHEMERIS_TYPE": "0",
    "CLASSIFICATION_TYPE": "U",
    "NORAD_CAT_ID": "42965",
    "ELEMENT_SET_NO": "999",
    "REV_AT_EPOCH": "2974",
    "BSTAR": "0.00000000000000",
    "MEAN_MOTION_DOT": "-0.00000310",
    "MEAN_MOTION_DDOT": "0.0000000000000",
    "SEMIMAJOR_AXIS": "42168.296",
    "PERIOD": "1436.279",
    "APOAPSIS": "38960.757",
    "PERIAPSIS": "32619.564",
    "OBJECT_TYPE": "PAYLOAD",
    "RCS_SIZE": "LARGE",
    "COUNTRY_CODE": "JPN",
    "LAUNCH_DATE": "2017-10-09",
    "SITE": "TNSTA",
    "DECAY_DATE": null,
    "FILE": "4896374",
    "GP_ID": "303353039",
    "TLE_LINE0": "0 QZS-4",
    "TLE_LINE1": "1 42965U 17062A   25327.49480118 -.00000310  00000-0  00000+0 0  9990",
    "TLE_LINE2": "2 42965  40.2375 346.1195 0751891 271.0446 121.4662  1.00259074 29745"
}